[{"OBJECT_NAME":"STARLINK-5382","OBJECT_ID":"2022-177A","EPOCH":"2025-09-01T05:42:20.839680","MEAN_MOTION":15.02537067,"ECCENTRICITY":0.0001213,"INCLINATION":43.0041,"RA_OF_ASC_NODE":83.0322,"ARG_OF_PERICENTER":267.7211,"MEAN_ANOMALY":92.3492,"EPHEMERIS_TYPE":0,"CLASSIFICATION_TYPE":"U","NORAD_CAT_ID":54820,"ELEMENT_SET_NO":999,"REV_AT_EPOCH":14845,"BSTAR":-1.6270059e-5,"MEAN_MOTION_DOT":-4.23e-6,"MEAN_MOTION_DDOT":0},{"OBJECT_NAME":"STARLINK-5385","OBJECT_ID":"2022-177B","EPOCH":"2025-08-31T23:01:53.021280","MEAN_MOTION":15.02501165,"ECCENTRICITY":0.00018188,"INCLINATION":42.9976,"RA_OF_ASC_NODE":84.3981,"ARG_OF_PERICENTER":41.3855,"MEAN_ANOMALY":318.7125,"EPHEMERIS_TYPE":0,"CLASSIFICATION_TYPE":"U","NORAD_CAT_ID":54821,"ELEMENT_SET_NO":999,"REV_AT_EPOCH":14841,"BSTAR":0.00036213634,"MEAN_MOTION_DOT":4.687e-5,"MEAN_MOTION_DDOT":0},{"OBJECT_NAME":"STARLINK-5101","OBJECT_ID":"2022-177C","EPOCH":"2025-09-01T14:52:44.671872","MEAN_MOTION":15.02536118,"ECCENTRICITY":0.00012675,"INCLINATION":43.0039,"RA_OF_ASC_NODE":80.7429,"ARG_OF_PERICENTER":279.8987,"MEAN_ANOMALY":80.1712,"EPHEMERIS_TYPE":0,"CLASSIFICATION_TYPE":"U","NORAD_CAT_ID":54822,"ELEMENT_SET_NO":999,"REV_AT_EPOCH":14851,"BSTAR":0.0001108176,"MEAN_MOTION_DOT":1.294e-5,"MEAN_MOTION_DDOT":0},{"OBJECT_NAME":"STARLINK-5106","OBJECT_ID":"2022-177D","EPOCH":"2025-08-31T23:14:38.345568","MEAN_MOTION":15.02541266,"ECCENTRICITY":0.00010312,"INCLINATION":43.0032,"RA_OF_ASC_NODE":84.4562,"ARG_OF_PERICENTER":252.1404,"MEAN_ANOMALY":107.9326,"EPHEMERIS_TYPE":0,"CLASSIFICATION_TYPE":"U","NORAD_CAT_ID":54823,"ELEMENT_SET_NO":999,"REV_AT_EPOCH":14841,"BSTAR":6.0549311e-5,"MEAN_MOTION_DOT":6.15e-6,"MEAN_MOTION_DDOT":0},{"OBJECT_NAME":"STARLINK-4643","OBJECT_ID":"2022-177E","EPOCH":"2025-08-31T23:09:51.441408","MEAN_MOTION":15.02590175,"ECCENTRICITY":0.00018226,"INCLINATION":43.0043,"RA_OF_ASC_NODE":84.4286,"ARG_OF_PERICENTER":274.4195,"MEAN_ANOMALY":85.6439,"EPHEMERIS_TYPE":0,"CLASSIFICATION_TYPE":"U","NORAD_CAT_ID":54824,"ELEMENT_SET_NO":999,"REV_AT_EPOCH":14841,"BSTAR":-0.0010046089,"MEAN_MOTION_DOT":-0.00013768,"MEAN_MOTION_DDOT":0},{"OBJECT_NAME":"STARLINK-4801","OBJECT_ID":"2022-177F","EPOCH":"2025-09-01T14:00:01.999872","MEAN_MOTION":15.72529441,"ECCENTRICITY":0.00021321,"INCLINATION":43.0003,"RA_OF_ASC_NODE":46.1599,"ARG_OF_PERICENTER":281.604,"MEAN_ANOMALY":82.5332,"EPHEMERIS_TYPE":0,"CLASSIFICATION_TYPE":"U","NORAD_CAT_ID":54825,"ELEMENT_SET_NO":999,"REV_AT_EPOCH":577,"BSTAR":0.0031443143,"MEAN_MOTION_DOT":0.00457503,"MEAN_MOTION_DDOT":0},{"OBJECT_NAME":"STARLINK-5107","OBJECT_ID":"2022-177G","EPOCH":"2025-08-31T22:57:03.784320","MEAN_MOTION":15.02535799,"ECCENTRICITY":0.00013087,"INCLINATION":43.0039,"RA_OF_ASC_NODE":84.3636,"ARG_OF_PERICENTER":267.8305,"MEAN_ANOMALY":92.2387,"EPHEMERIS_TYPE":0,"CLASSIFICATION_TYPE":"U","NORAD_CAT_ID":54826,"ELEMENT_SET_NO":999,"REV_AT_EPOCH":14841,"BSTAR":6.108282e-5,"MEAN_MOTION_DOT":6.22e-6,"MEAN_MOTION_DDOT":0},{"OBJECT_NAME":"STARLINK-5383","OBJECT_ID":"2022-177H","EPOCH":"2025-09-01T06:44:30.940224","MEAN_MOTION":15.02534933,"ECCENTRICITY":0.00011754,"INCLINATION":43.0025,"RA_OF_ASC_NODE":82.4994,"ARG_OF_PERICENTER":270.7376,"MEAN_ANOMALY":89.3331,"EPHEMERIS_TYPE":0,"CLASSIFICATION_TYPE":"U","NORAD_CAT_ID":54827,"ELEMENT_SET_NO":999,"REV_AT_EPOCH":14847,"BSTAR":4.8735453e-5,"MEAN_MOTION_DOT":4.55e-6,"MEAN_MOTION_DDOT":0},{"OBJECT_NAME":"STARLINK-5381","OBJECT_ID":"2022-177J","EPOCH":"2025-09-01T06:39:43.218720","MEAN_MOTION":15.02536088,"ECCENTRICITY":0.00012733,"INCLINATION":43.0047,"RA_OF_ASC_NODE":82.4745,"ARG_OF_PERICENTER":265.1877,"MEAN_ANOMALY":94.882,"EPHEMERIS_TYPE":0,"CLASSIFICATION_TYPE":"U","NORAD_CAT_ID":54828,"ELEMENT_SET_NO":999,"REV_AT_EPOCH":14846,"BSTAR":7.1011735e-5,"MEAN_MOTION_DOT":7.56e-6,"MEAN_MOTION_DDOT":0},{"OBJECT_NAME":"STARLINK-5394","OBJECT_ID":"2022-177L","EPOCH":"2025-09-01T06:31:44.675040","MEAN_MOTION":15.02538109,"ECCENTRICITY":0.00012902,"INCLINATION":43.0038,"RA_OF_ASC_NODE":82.4279,"ARG_OF_PERICENTER":268.5059,"MEAN_ANOMALY":91.5636,"EPHEMERIS_TYPE":0,"CLASSIFICATION_TYPE":"U","NORAD_CAT_ID":54830,"ELEMENT_SET_NO":999,"REV_AT_EPOCH":14846,"BSTAR":7.5988905e-5,"MEAN_MOTION_DOT":8.23e-6,"MEAN_MOTION_DDOT":0},{"OBJECT_NAME":"STARLINK-5395","OBJECT_ID":"2022-177M","EPOCH":"2025-08-31T19:48:47.520864","MEAN_MOTION":15.02542837,"ECCENTRICITY":0.00013191,"INCLINATION":43.0028,"RA_OF_ASC_NODE":85.0953,"ARG_OF_PERICENTER":271.9003,"MEAN_ANOMALY":88.1688,"EPHEMERIS_TYPE":0,"CLASSIFICATION_TYPE":"U","NORAD_CAT_ID":54831,"ELEMENT_SET_NO":999,"REV_AT_EPOCH":14839,"BSTAR":0.00014433957,"MEAN_MOTION_DOT":1.747e-5,"MEAN_MOTION_DDOT":0},{"OBJECT_NAME":"STARLINK-5393","OBJECT_ID":"2022-177N","EPOCH":"2025-09-01T14:00:01.999872","MEAN_MOTION":15.45019334,"ECCENTRICITY":0.00024624,"INCLINATION":43.0014,"RA_OF_ASC_NODE":61.8677,"ARG_OF_PERICENTER":259.6649,"MEAN_ANOMALY":310.0289,"EPHEMERIS_TYPE":0,"CLASSIFICATION_TYPE":"U","NORAD_CAT_ID":54832,"ELEMENT_SET_NO":999,"REV_AT_EPOCH":570,"BSTAR":0.01864685,"MEAN_MOTION_DOT":0.00989065,"MEAN_MOTION_DDOT":0},{"OBJECT_NAME":"STARLINK-5391","OBJECT_ID":"2022-177P","EPOCH":"2025-09-01T06:41:19.134816","MEAN_MOTION":15.02533364,"ECCENTRICITY":0.00010583,"INCLINATION":43.0031,"RA_OF_ASC_NODE":82.4806,"ARG_OF_PERICENTER":276.9111,"MEAN_ANOMALY":83.1611,"EPHEMERIS_TYPE":0,"CLASSIFICATION_TYPE":"U","NORAD_CAT_ID":54833,"ELEMENT_SET_NO":999,"REV_AT_EPOCH":14846,"BSTAR":1.8255891e-5,"MEAN_MOTION_DOT":4.3e-7,"MEAN_MOTION_DDOT":0},{"OBJECT_NAME":"STARLINK-5386","OBJECT_ID":"2022-177Q","EPOCH":"2025-09-01T06:30:07.545024","MEAN_MOTION":15.02540861,"ECCENTRICITY":0.00012643,"INCLINATION":43.0027,"RA_OF_ASC_NODE":82.4235,"ARG_OF_PERICENTER":269.0555,"MEAN_ANOMALY":91.0143,"EPHEMERIS_TYPE":0,"CLASSIFICATION_TYPE":"U","NORAD_CAT_ID":54834,"ELEMENT_SET_NO":999,"REV_AT_EPOCH":14847,"BSTAR":7.9958574e-5,"MEAN_MOTION_DOT":8.77e-6,"MEAN_MOTION_DDOT":0},{"OBJECT_NAME":"STARLINK-5389","OBJECT_ID":"2022-177R","EPOCH":"2025-09-01T06:36:31.501440","MEAN_MOTION":15.02536962,"ECCENTRICITY":0.00011329,"INCLINATION":43.0043,"RA_OF_ASC_NODE":82.4574,"ARG_OF_PERICENTER":274.2433,"MEAN_ANOMALY":85.828,"EPHEMERIS_TYPE":0,"CLASSIFICATION_TYPE":"U","NORAD_CAT_ID":54835,"ELEMENT_SET_NO":999,"REV_AT_EPOCH":14846,"BSTAR":-4.650966e-6,"MEAN_MOTION_DOT":-2.66e-6,"MEAN_MOTION_DDOT":0},{"OBJECT_NAME":"STARLINK-5384","OBJECT_ID":"2022-177S","EPOCH":"2025-09-01T06:25:19.872768","MEAN_MOTION":15.02538058,"ECCENTRICITY":0.00011078,"INCLINATION":43.0029,"RA_OF_ASC_NODE":82.394,"ARG_OF_PERICENTER":264.0151,"MEAN_ANOMALY":96.0565,"EPHEMERIS_TYPE":0,"CLASSIFICATION_TYPE":"U","NORAD_CAT_ID":54836,"ELEMENT_SET_NO":999,"REV_AT_EPOCH":14847,"BSTAR":7.634807e-5,"MEAN_MOTION_DOT":8.28e-6,"MEAN_MOTION_DDOT":0}]
