STARLINK-5382           
1 54820U 22177A   25244.23774120 -.00000423  00000+0 -16270-4 0  9991
2 54820  43.0041  83.0322 0001213 267.7211  92.3492 15.02537067148451
STARLINK-5385           
1 54821U 22177B   25243.95964145  .00004687  00000+0  36214-3 0  9991
2 54821  42.9976  84.3981 0001818  41.3855 318.7125 15.02501165148417
STARLINK-5101           
1 54822U 22177C   25244.61996148  .00001294  00000+0  11082-3 0  9991
2 54822  43.0039  80.7429 0001267 279.8987  80.1712 15.02536118148518
STARLINK-5106           
1 54823U 22177D   25243.96849937  .00000615  00000+0  60549-4 0  9991
2 54823  43.0032  84.4562 0001031 252.1404 107.9326 15.02541266148416
STARLINK-4643           
1 54824U 22177E   25243.96517872 -.00013768  00000+0 -10046-2 0  9992
2 54824  43.0043  84.4286 0001822 274.4195  85.6439 15.02590175148414
STARLINK-4801           
1 54825U 22177F   25244.58335648  .00457503  00000+0  31443-2 0  9992
2 54825  43.0003  46.1599 0002132 281.6040  82.5332 15.72529441  5771
STARLINK-5107           
1 54826U 22177G   25243.95629380  .00000622  00000+0  61083-4 0  9993
2 54826  43.0039  84.3636 0001308 267.8305  92.2387 15.02535799148414
STARLINK-5383           
1 54827U 22177H   25244.28091366  .00000455  00000+0  48735-4 0  9991
2 54827  43.0025  82.4994 0001175 270.7376  89.3331 15.02534933148470
STARLINK-5381           
1 54828U 22177J   25244.27758355  .00000756  00000+0  71012-4 0  9997
2 54828  43.0047  82.4745 0001273 265.1877  94.8820 15.02536088148468
STARLINK-5394           
1 54830U 22177L   25244.27204485  .00000823  00000+0  75989-4 0  9992
2 54830  43.0038  82.4279 0001290 268.5059  91.5636 15.02538109148466
STARLINK-5395           
1 54831U 22177M   25243.82555001  .00001747  00000+0  14434-3 0  9999
2 54831  43.0028  85.0953 0001319 271.9003  88.1688 15.02542837148397
STARLINK-5393           
1 54832U 22177N   25244.58335648  .00989065  00000+0  18647-1 0  9993
2 54832  43.0014  61.8677 0002462 259.6649 310.0289 15.45019334  5706
STARLINK-5391           
1 54833U 22177P   25244.27869369  .00000043  00000+0  18256-4 0  9991
2 54833  43.0031  82.4806 0001058 276.9111  83.1611 15.02533364148460
STARLINK-5386           
1 54834U 22177Q   25244.27092066  .00000877  00000+0  79959-4 0  9996
2 54834  43.0027  82.4235 0001264 269.0555  91.0143 15.02540861148475
STARLINK-5389           
1 54835U 22177R   25244.27536460 -.00000266  00000+0 -46510-5 0  9990
2 54835  43.0043  82.4574 0001132 274.2433  85.8280 15.02536962148466
STARLINK-5384           
1 54836U 22177S   25244.26759112  .00000828  00000+0  76348-4 0  9994
2 54836  43.0029  82.3940 0001107 264.0151  96.0565 15.02538058148472
